{"type": "FeatureCollection", "features": [ {"type": "Feature", "properties": {"norad_id": 67050, "name": "STARLINK-36078", "group": "last-30-days", "lat": -17.212072956489134, "lon": -56.39720343414896, "alt_km": 360.5271677353703, "timestamp": "2025-12-25T11:37:43.136483+00:00", "meta": {"OBJECT_NAME": "STARLINK-36078", "OBJECT_ID": "2025-294W", "EPOCH": "2025-12-25T04:00:01.998720", "MEAN_MOTION": 15.71239158, "ECCENTRICITY": 0.0001274, "INCLINATION": 43, "RA_OF_ASC_NODE": 106.1016, "ARG_OF_PERICENTER": 269.8471, "MEAN_ANOMALY": 296.5711, "EPHEMERIS_TYPE": 0, "CLASSIFICATION_TYPE": "U", "NORAD_CAT_ID": 67050, "ELEMENT_SET_NO": 999, "REV_AT_EPOCH": 222, "BSTAR": -0.016809, "MEAN_MOTION_DOT": -0.01942206, "MEAN_MOTION_DDOT": 0}, "tle": {"line1": "1 67050U 25294W   25359.16668980 -.01942206  00000+0 -16809-1 0  9998", "line2": "2 67050  43.0000 106.1016 0001274 269.8471 296.5711 15.71239158  2222"}}, "geometry": {"type": "Point", "coordinates": [-56.39720343414896, -17.212072956489134]}}, {"type": "Feature", "properties": {"norad_id": 67051, "name": "STARLINK-35706", "group": "last-30-days", "lat": -18.62939454936529, "lon": -54.61093249367837, "alt_km": 360.62042237732476, "timestamp": "2025-12-25T11:37:43.136493+00:00", "meta": {"OBJECT_NAME": "STARLINK-35706", "OBJECT_ID": "2025-294X", "EPOCH": "2025-12-25T04:00:01.998720", "MEAN_MOTION": 15.7122234, "ECCENTRICITY": 0.0001241, "INCLINATION": 43.0002, "RA_OF_ASC_NODE": 106.0963, "ARG_OF_PERICENTER": 266.4325, "MEAN_ANOMALY": 302.2232, "EPHEMERIS_TYPE": 0, "CLASSIFICATION_TYPE": "U", "NORAD_CAT_ID": 67051, "ELEMENT_SET_NO": 999, "REV_AT_EPOCH": 230, "BSTAR": -0.016847, "MEAN_MOTION_DOT": -0.01944844, "MEAN_MOTION_DDOT": 0}, "tle": {"line1": "1 67051U 25294X   25359.16668980 -.01944844  00000+0 -16847-1 0  9991", "line2": "2 67051  43.0002 106.0963 0001241 266.4325 302.2232 15.71222340  2307"}}, "geometry": {"type": "Point", "coordinates": [-54.61093249367837, -18.62939454936529]}}, {"type": "Feature", "properties": {"norad_id": 67052, "name": "STARLINK-35720", "group": "last-30-days", "lat": -19.87271966597227, "lon": -53.001018728731886, "alt_km": 360.7538647884785, "timestamp": "2025-12-25T11:37:43.136503+00:00", "meta": {"OBJECT_NAME": "STARLINK-35720", "OBJECT_ID": "2025-294Y", "EPOCH": "2025-12-25T04:00:01.998720", "MEAN_MOTION": 15.71219992, "ECCENTRICITY": 0.0001266, "INCLINATION": 43.0003, "RA_OF_ASC_NODE": 106.0914, "ARG_OF_PERICENTER": 269.488, "MEAN_ANOMALY": 301.1396, "EPHEMERIS_TYPE": 0, "CLASSIFICATION_TYPE": "U", "NORAD_CAT_ID": 67052, "ELEMENT_SET_NO": 999, "REV_AT_EPOCH": 229, "BSTAR": -0.016853, "MEAN_MOTION_DOT": -0.0194537, "MEAN_MOTION_DDOT": 0}, "tle": {"line1": "1 67052U 25294Y   25359.16668980 -.01945370  00000+0 -16853-1 0  9994", "line2": "2 67052  43.0003 106.0914 0001266 269.4880 301.1396 15.71219992  2297"}}, "geometry": {"type": "Point", "coordinates": [-53.001018728731886, -19.87271966597227]}}, {"type": "Feature", "properties": {"norad_id": 67053, "name": "STARLINK-35739", "group": "last-30-days", "lat": -21.19606491727087, "lon": -51.238217029557646, "alt_km": 360.8200503527669, "timestamp": "2025-12-25T11:37:43.136515+00:00", "meta": {"OBJECT_NAME": "STARLINK-35739", "OBJECT_ID": "2025-294Z", "EPOCH": "2025-12-25T04:00:01.998720", "MEAN_MOTION": 15.71207155, "ECCENTRICITY": 0.0001271, "INCLINATION": 43.0007, "RA_OF_ASC_NODE": 106.0857, "ARG_OF_PERICENTER": 266.889, "MEAN_ANOMALY": 305.8738, "EPHEMERIS_TYPE": 0, "CLASSIFICATION_TYPE": "U", "NORAD_CAT_ID": 67053, "ELEMENT_SET_NO": 999, "REV_AT_EPOCH": 194, "BSTAR": -0.016858, "MEAN_MOTION_DOT": -0.01944921, "MEAN_MOTION_DDOT": 0}, "tle": {"line1": "1 67053U 25294Z   25359.16668980 -.01944921  00000+0 -16858-1 0  9991", "line2": "2 67053  43.0007 106.0857 0001271 266.8890 305.8738 15.71207155  1946"}}, "geometry": {"type": "Point", "coordinates": [-51.238217029557646, -21.19606491727087]}}, {"type": "Feature", "properties": {"norad_id": 67054, "name": "STARLINK-35754", "group": "last-30-days", "lat": -22.574491033671332, "lon": -49.33922400292375, "alt_km": 360.9603353817756, "timestamp": "2025-12-25T11:37:43.136526+00:00", "meta": {"OBJECT_NAME": "STARLINK-35754", "OBJECT_ID": "2025-294AA", "EPOCH": "2025-12-25T04:00:01.998720", "MEAN_MOTION": 15.71187191, "ECCENTRICITY": 0.0001364, "INCLINATION": 43.0005, "RA_OF_ASC_NODE": 106.0802, "ARG_OF_PERICENTER": 269.1972, "MEAN_ANOMALY": 305.8321, "EPHEMERIS_TYPE": 0, "CLASSIFICATION_TYPE": "U", "NORAD_CAT_ID": 67054, "ELEMENT_SET_NO": 999, "REV_AT_EPOCH": 211, "BSTAR": -0.016866, "MEAN_MOTION_DOT": -0.01944361, "MEAN_MOTION_DDOT": 0}, "tle": {"line1": "1 67054U 25294AA  25359.16668980 -.01944361  00000+0 -16866-1 0  9999", "line2": "2 67054  43.0005 106.0802 0001364 269.1972 305.8321 15.71187191  2110"}}, "geometry": {"type": "Point", "coordinates": [-49.33922400292375, -22.574491033671332]}}, {"type": "Feature", "properties": {"norad_id": 67055, "name": "STARLINK-35790", "group": "last-30-days", "lat": -23.89818889008822, "lon": -47.44893950110916, "alt_km": 361.05767642923183, "timestamp": "2025-12-25T11:37:43.136540+00:00", "meta": {"OBJECT_NAME": "STARLINK-35790", "OBJECT_ID": "2025-294AB", "EPOCH": "2025-12-25T04:00:01.998720", "MEAN_MOTION": 15.71172502, "ECCENTRICITY": 0.0001341, "INCLINATION": 43.0001, "RA_OF_ASC_NODE": 106.0741, "ARG_OF_PERICENTER": 267.6473, "MEAN_ANOMALY": 309.5889, "EPHEMERIS_TYPE": 0, "CLASSIFICATION_TYPE": "U", "NORAD_CAT_ID": 67055, "ELEMENT_SET_NO": 999, "REV_AT_EPOCH": 230, "BSTAR": -0.016898, "MEAN_MOTION_DOT": -0.01946491, "MEAN_MOTION_DDOT": 0}, "tle": {"line1": "1 67055U 25294AB  25359.16668980 -.01946491  00000+0 -16898-1 0  9991", "line2": "2 67055  43.0001 106.0741 0001341 267.6473 309.5889 15.71172502  2304"}}, "geometry": {"type": "Point", "coordinates": [-47.44893950110916, -23.89818889008822]}}, {"type": "Feature", "properties": {"norad_id": 67056, "name": "STARLINK-36143", "group": "last-30-days", "lat": -27.413962022145725, "lon": -42.03583821097796, "alt_km": 361.2760672436725, "timestamp": "2025-12-25T11:37:43.136550+00:00", "meta": {"OBJECT_NAME": "STARLINK-36143", "OBJECT_ID": "2025-294AC", "EPOCH": "2025-12-25T04:00:01.998720", "MEAN_MOTION": 15.71154016, "ECCENTRICITY": 0.0001342, "INCLINATION": 42.9997, "RA_OF_ASC_NODE": 106.0585, "ARG_OF_PERICENTER": 267.656, "MEAN_ANOMALY": 315.6292, "EPHEMERIS_TYPE": 0, "CLASSIFICATION_TYPE": "U", "NORAD_CAT_ID": 67056, "ELEMENT_SET_NO": 999, "REV_AT_EPOCH": 230, "BSTAR": -0.016895, "MEAN_MOTION_DOT": -0.01944796, "MEAN_MOTION_DDOT": 0}, "tle": {"line1": "1 67056U 25294AC  25359.16668980 -.01944796  00000+0 -16895-1 0  9995", "line2": "2 67056  42.9997 106.0585 0001342 267.6560 315.6292 15.71154016  2307"}}, "geometry": {"type": "Point", "coordinates": [-42.03583821097796, -27.413962022145725]}}, {"type": "Feature", "properties": {"norad_id": 67057, "name": "STARLINK-36141", "group": "last-30-days", "lat": -26.23608785636455, "lon": -43.9204574683055, "alt_km": 361.27493382299053, "timestamp": "2025-12-25T11:37:43.136562+00:00", "meta": {"OBJECT_NAME": "STARLINK-36141", "OBJECT_ID": "2025-294AD", "EPOCH": "2025-12-25T04:00:01.998720", "MEAN_MOTION": 15.71161161, "ECCENTRICITY": 0.0001316, "INCLINATION": 42.9998, "RA_OF_ASC_NODE": 106.0642, "ARG_OF_PERICENTER": 271.192, "MEAN_ANOMALY": 310.027, "EPHEMERIS_TYPE": 0, "CLASSIFICATION_TYPE": "U", "NORAD_CAT_ID": 67057, "ELEMENT_SET_NO": 999, "REV_AT_EPOCH": 222, "BSTAR": -0.016898, "MEAN_MOTION_DOT": -0.01945637, "MEAN_MOTION_DDOT": 0}, "tle": {"line1": "1 67057U 25294AD  25359.16668980 -.01945637  00000+0 -16898-1 0  9994", "line2": "2 67057  42.9998 106.0642 0001316 271.1920 310.0270 15.71161161  2229"}}, "geometry": {"type": "Point", "coordinates": [-43.9204574683055, -26.23608785636455]}}, {"type": "Feature", "properties": {"norad_id": 67058, "name": "STARLINK-35767", "group": "last-30-days", "lat": -25.094987315336542, "lon": -45.67544046361794, "alt_km": 361.1221981038707, "timestamp": "2025-12-25T11:37:43.136572+00:00", "meta": {"OBJECT_NAME": "STARLINK-35767", "OBJECT_ID": "2025-294AE", "EPOCH": "2025-12-25T04:00:01.998720", "MEAN_MOTION": 15.71165653, "ECCENTRICITY": 0.0001296, "INCLINATION": 43.0001, "RA_OF_ASC_NODE": 106.0692, "ARG_OF_PERICENTER": 265.7638, "MEAN_ANOMALY": 313.4927, "EPHEMERIS_TYPE": 0, "CLASSIFICATION_TYPE": "U", "NORAD_CAT_ID": 67058, "ELEMENT_SET_NO": 999, "REV_AT_EPOCH": 211, "BSTAR": -0.016885, "MEAN_MOTION_DOT": -0.01944691, "MEAN_MOTION_DDOT": 0}, "tle": {"line1": "1 67058U 25294AE  25359.16668980 -.01944691  00000+0 -16885-1 0  9990", "line2": "2 67058  43.0001 106.0692 0001296 265.7638 313.4927 15.71165653  2118"}}, "geometry": {"type": "Point", "coordinates": [-45.67544046361794, -25.094987315336542]}}, {"type": "Feature", "properties": {"norad_id": 67059, "name": "HULIANWANG DIGUI-119", "group": "last-30-days", "lat": 49.34992481690691, "lon": 60.59834273736485, "alt_km": 812.6759655111382, "timestamp": "2025-12-25T11:37:43.136582+00:00", "meta": {"OBJECT_NAME": "HULIANWANG DIGUI-119", "OBJECT_ID": "2025-295A", "EPOCH": "2025-12-25T02:45:12.132864", "MEAN_MOTION": 14.24616725, "ECCENTRICITY": 0.0014021, "INCLINATION": 50.005, "RA_OF_ASC_NODE": 320.0392, "ARG_OF_PERICENTER": 290.0442, "MEAN_ANOMALY": 69.8962, "EPHEMERIS_TYPE": 0, "CLASSIFICATION_TYPE": "U", "NORAD_CAT_ID": 67059, "ELEMENT_SET_NO": 999, "REV_AT_EPOCH": 188, "BSTAR": 7.5937e-05, "MEAN_MOTION_DOT": 1.8e-07, "MEAN_MOTION_DDOT": 0}, "tle": {"line1": "1 67059U 25295A   25359.11472376  .00000018  00000+0  75937-4 0  9998", "line2": "2 67059  50.0050 320.0392 0014021 290.0442  69.8962 14.24616725  1882"}}, "geometry": {"type": "Point", "coordinates": [60.59834273736485, 49.34992481690691]}}]}